[{"type":"way","nodes":[{"latitude":52.296864,"longitude":8.047108},{"latitude":52.296883,"longitude":8.047383},{"latitude":52.296886,"longitude":8.046805},{"latitude":52.296913,"longitude":8.047609},{"latitude":52.29693,"longitude":8.046551},{"latitude":52.297005,"longitude":8.047943},{"latitude":52.297047,"longitude":8.0462265}],"normalizedTags":{"smoothness":"very_bad","surface":"cobblestone","name":"Allensteiner Straße","maxspeed":"30","source":"frida","highway":"residential"},"state":0.8},{"type":"way","nodes":[{"latitude":52.296913,"longitude":8.048115},{"latitude":52.297215,"longitude":8.048845},{"latitude":52.297546,"longitude":8.049621},{"latitude":52.297783,"longitude":8.050148},{"latitude":52.297924,"longitude":8.050636},{"latitude":52.297928,"longitude":8.050543}],"normalizedTags":{"smoothness":"very_bad","surface":"cobblestone","name":"Bunzlauer Weg","maxspeed":"30","source":"frida","highway":"residential"},"state":0.8},{"type":"way","nodes":[{"latitude":52.2947,"longitude":8.049387},{"latitude":52.2954,"longitude":8.04874},{"latitude":52.296177,"longitude":8.048123}],"normalizedTags":{"lit":"yes","name":"Zeisigweg","maxspeed":"30","source":"luftbild_igf_uni_os","highway":"residential"},"state":0.8},{"type":"way","nodes":[{"latitude":52.29503,"longitude":8.044492},{"latitude":52.2951,"longitude":8.044272},{"latitude":52.295345,"longitude":8.044126}],"normalizedTags":{"name":"Walter-Rathenau-Straße","maxspeed":"30","source":"frida","highway":"residential","oneway":"no"},"state":0.8},{"type":"way","nodes":[{"latitude":52.297016,"longitude":8.050087},{"latitude":52.297077,"longitude":8.050026},{"latitude":52.297306,"longitude":8.049804},{"latitude":52.297546,"longitude":8.049621},{"latitude":52.29778,"longitude":8.049413}],"normalizedTags":{"motor_vehicle":"permissive","name":"Amselweg","maxspeed":"30","source":"frida","highway":"residential"},"state":0.8},{"type":"way","nodes":[{"latitude":52.296806,"longitude":8.046011},{"latitude":52.297024,"longitude":8.04532},{"latitude":52.29725,"longitude":8.0446005}],"normalizedTags":{"smoothness":"very_bad","surface":"cobblestone","name":"Stargarder Straße","maxspeed":"30","source":"frida","highway":"residential"},"state":0.8},{"type":"way","nodes":[{"latitude":52.29713,"longitude":8.046295},{"latitude":52.29735,"longitude":8.045589},{"latitude":52.297607,"longitude":8.045208}],"normalizedTags":{"smoothness":"very_bad","surface":"cobblestone","converted_by":"Henry Hurink","name":"Kolberger Straße","maxspeed":"30","source":"frida & luftbild_igf_uni_os","highway":"residential"},"state":0.8},{"type":"way","nodes":[{"latitude":52.297447,"longitude":8.046546},{"latitude":52.297653,"longitude":8.045946},{"latitude":52.29783,"longitude":8.045662}],"normalizedTags":{"smoothness":"very_bad","surface":"cobblestone","name":"Elbinger Straße","maxspeed":"30","source":"frida","highway":"residential"},"state":0.8},{"type":"way","nodes":[{"latitude":52.296494,"longitude":8.045752},{"latitude":52.29654,"longitude":8.045489},{"latitude":52.296745,"longitude":8.04368},{"latitude":52.296783,"longitude":8.044461}],"normalizedTags":{"smoothness":"very_bad","surface":"cobblestone","name":"Tilsiter Straße","maxspeed":"30","source":"frida","highway":"residential"},"state":0.8},{"type":"way","nodes":[{"latitude":52.296745,"longitude":8.04368},{"latitude":52.296898,"longitude":8.044031},{"latitude":52.29725,"longitude":8.0446005},{"latitude":52.297607,"longitude":8.045208},{"latitude":52.29783,"longitude":8.045662},{"latitude":52.297993,"longitude":8.046125},{"latitude":52.298428,"longitude":8.046561}],"normalizedTags":{"smoothness":"very_bad","surface":"cobblestone","name":"Breslauer Straße","maxspeed":"30","source":"frida","highway":"residential"},"state":0.8},{"type":"way","nodes":[{"latitude":52.29248,"longitude":8.053906},{"latitude":52.29248,"longitude":8.054065},{"latitude":52.292595,"longitude":8.053476},{"latitude":52.292736,"longitude":8.052969},{"latitude":52.292892,"longitude":8.052398},{"latitude":52.292953,"longitude":8.052289},{"latitude":52.293068,"longitude":8.052211},{"latitude":52.29329,"longitude":8.052201},{"latitude":52.29369,"longitude":8.052322},{"latitude":52.29381,"longitude":8.05237},{"latitude":52.293896,"longitude":8.052414},{"latitude":52.294025,"longitude":8.052516},{"latitude":52.294224,"longitude":8.052705},{"latitude":52.29433,"longitude":8.052854},{"latitude":52.294544,"longitude":8.053273},{"latitude":52.29461,"longitude":8.053412},{"latitude":52.2947,"longitude":8.053509},{"latitude":52.29477,"longitude":8.053581},{"latitude":52.29511,"longitude":8.053716},{"latitude":52.295174,"longitude":8.053889},{"latitude":52.295288,"longitude":8.054272},{"latitude":52.295353,"longitude":8.054419}],"normalizedTags":{"cycleway:both":"no","name":"Bertholdweg","source":"frida","highway":"residential"},"state":0.8},{"type":"way","nodes":[{"latitude":52.29439,"longitude":8.051213},{"latitude":52.294777,"longitude":8.051379},{"latitude":52.294907,"longitude":8.051513},{"latitude":52.29505,"longitude":8.051753},{"latitude":52.2952,"longitude":8.052093},{"latitude":52.295403,"longitude":8.052545},{"latitude":52.295498,"longitude":8.052763},{"latitude":52.295643,"longitude":8.053081},{"latitude":52.295673,"longitude":8.053153},{"latitude":52.29578,"longitude":8.053384},{"latitude":52.295868,"longitude":8.053581},{"latitude":52.29593,"longitude":8.053729}],"normalizedTags":{"name":"Boelckeweg","maxspeed":"30","source":"frida","highway":"residential"},"state":0.8},{"type":"way","nodes":[{"latitude":52.295303,"longitude":8.053487},{"latitude":52.295544,"longitude":8.053204},{"latitude":52.295643,"longitude":8.053081}],"normalizedTags":{"cycleway:both":"no","name":"Boelckeweg","source":"frida","highway":"residential"},"state":0.8},{"type":"way","nodes":[{"latitude":52.297737,"longitude":8.046833},{"latitude":52.297993,"longitude":8.046125}],"normalizedTags":{"smoothness":"very_bad","surface":"cobblestone","name":"Pillauer Straße","maxspeed":"30","source":"frida","highway":"residential"},"state":0.8},{"type":"way","nodes":[{"latitude":52.294033,"longitude":8.048141},{"latitude":52.29495,"longitude":8.047364},{"latitude":52.29559,"longitude":8.0467615}],"normalizedTags":{"lit":"yes","name":"Drosselweg","maxspeed":"30","source":"frida","highway":"residential"},"state":0.8},{"type":"way","nodes":[{"latitude":52.29715,"longitude":8.050802},{"latitude":52.297234,"longitude":8.05068},{"latitude":52.297386,"longitude":8.051505},{"latitude":52.29752,"longitude":8.051477}],"normalizedTags":{"smoothness":"very_bad","surface":"cobblestone","name":"Nachtigallenweg","source":"frida","highway":"residential"},"state":0.8},{"type":"way","nodes":[{"latitude":52.29667,"longitude":8.050533},{"latitude":52.29672,"longitude":8.050673},{"latitude":52.29675,"longitude":8.050775},{"latitude":52.297073,"longitude":8.05175}],"normalizedTags":{"smoothness":"very_bad","surface":"cobblestone","name":"Elsternweg","maxspeed":"30","source":"frida","highway":"residential"},"state":0.8},{"type":"way","nodes":[{"latitude":52.29752,"longitude":8.05489},{"latitude":52.297657,"longitude":8.054699},{"latitude":52.298164,"longitude":8.054162},{"latitude":52.29842,"longitude":8.053952},{"latitude":52.298714,"longitude":8.0537405},{"latitude":52.299057,"longitude":8.053531},{"latitude":52.29947,"longitude":8.05329},{"latitude":52.299965,"longitude":8.054388}],"normalizedTags":{"lit":"yes","name":"Von-Bodelschwingh-Straße","maxspeed":"30","source":"frida","highway":"residential"},"state":0.8},{"type":"way","nodes":[{"latitude":52.296345,"longitude":8.050814},{"latitude":52.296387,"longitude":8.050944},{"latitude":52.29653,"longitude":8.051393},{"latitude":52.296757,"longitude":8.052018}],"normalizedTags":{"smoothness":"very_bad",&qu...
  